{
  "type": "FeatureCollection",
  "features": [
    {
      "type": "Feature",
      "properties": {
        "norad_id": 43823,
        "name": "GEO-KOMPSAT-2A",
        "group": "weather",
        "lat": -0.003683460515427633,
        "lon": -78.18178371290668,
        "alt_km": 35786.77106298225,
        "timestamp": "2025-12-10T04:57:29.249593+00:00",
        "meta_object_name": "GEO-KOMPSAT-2A",
        "meta_object_id": "2018-100A",
        "meta_epoch": "2025-12-09T14:54:14.532192",
        "meta_mean_motion": 1.00269952,
        "meta_eccentricity": 1.3e-05,
        "meta_inclination": 0.0412,
        "meta_ra_of_asc_node": 146.0636,
        "meta_arg_of_pericenter": 36.3547,
        "meta_mean_anomaly": 248.0171,
        "meta_ephemeris_type": 0,
        "meta_classification_type": "U",
        "meta_norad_cat_id": 43823,
        "meta_element_set_no": 999,
        "meta_rev_at_epoch": 2572,
        "meta_bstar": 0,
        "meta_mean_motion_dot": -3.41e-06,
        "meta_mean_motion_ddot": 0,
        "tle_line1": "1 43823U 18100A   25343.62100153 -.00000341  00000+0  00000+0 0  9992",
        "tle_line2": "2 43823   0.0412 146.0636 0000130  36.3547 248.0171  1.00269952 25720"
      },
      "geometry": {
        "type": "Point",
        "coordinates": [
          -78.18178371290668,
          -0.003683460515427633
        ]
      }
    },
    {
      "type": "Feature",
      "properties": {
        "norad_id": 44387,
        "name": "METEOR-M2 2",
        "group": "weather",
        "lat": -6.339137678283168,
        "lon": -35.099045274965654,
        "alt_km": 815.3561006558884,
        "timestamp": "2025-12-10T04:57:29.249604+00:00",
        "meta_object_name": "METEOR-M2 2",
        "meta_object_id": "2019-038A",
        "meta_epoch": "2025-12-09T20:33:29.465856",
        "meta_mean_motion": 14.24289646,
        "meta_eccentricity": 0.0001144,
        "meta_inclination": 98.8971,
        "meta_ra_of_asc_node": 323.5496,
        "meta_arg_of_pericenter": 154.5006,
        "meta_mean_anomaly": 205.6229,
        "meta_ephemeris_type": 0,
        "meta_classification_type": "U",
        "meta_norad_cat_id": 44387,
        "meta_element_set_no": 999,
        "meta_rev_at_epoch": 33434,
        "meta_bstar": 0.00016487,
        "meta_mean_motion_dot": 3.35e-06,
        "meta_mean_motion_ddot": 0,
        "tle_line1": "1 44387U 19038A   25343.85659104  .00000335  00000+0  16487-3 0  9991",
        "tle_line2": "2 44387  98.8971 323.5496 0001144 154.5006 205.6229 14.24289646334342"
      },
      "geometry": {
        "type": "Point",
        "coordinates": [
          -35.099045274965654,
          -6.339137678283168
        ]
      }
    },
    {
      "type": "Feature",
      "properties": {
        "norad_id": 47719,
        "name": "ARKTIKA-M 1",
        "group": "weather",
        "lat": 56.746452075431826,
        "lon": 134.80951058162304,
        "alt_km": 33410.4609551468,
        "timestamp": "2025-12-10T04:57:29.249617+00:00",
        "meta_object_name": "ARKTIKA-M 1",
        "meta_object_id": "2021-016A",
        "meta_epoch": "2025-12-09T14:03:23.859648",
        "meta_mean_motion": 2.00631311,
        "meta_eccentricity": 0.7202538,
        "meta_inclination": 63.1769,
        "meta_ra_of_asc_node": 84.4506,
        "meta_arg_of_pericenter": 269.1116,
        "meta_mean_anomaly": 15.6235,
        "meta_ephemeris_type": 0,
        "meta_classification_type": "U",
        "meta_norad_cat_id": 47719,
        "meta_element_set_no": 999,
        "meta_rev_at_epoch": 3498,
        "meta_bstar": 0,
        "meta_mean_motion_dot": -6.1e-07,
        "meta_mean_motion_ddot": 0,
        "tle_line1": "1 47719U 21016A   25343.58569282 -.00000061  00000+0  00000+0 0  9996",
        "tle_line2": "2 47719  63.1769  84.4506 7202538 269.1116  15.6235  2.00631311 34985"
      },
      "geometry": {
        "type": "Point",
        "coordinates": [
          134.80951058162304,
          56.746452075431826
        ]
      }
    },
    {
      "type": "Feature",
      "properties": {
        "norad_id": 49008,
        "name": "FENGYUN 3E",
        "group": "weather",
        "lat": -6.833884005506424,
        "lon": -14.18543639339186,
        "alt_km": 829.3512959100644,
        "timestamp": "2025-12-10T04:57:29.249637+00:00",
        "meta_object_name": "FENGYUN 3E",
        "meta_object_id": "2021-062A",
        "meta_epoch": "2025-12-09T20:32:03.916032",
        "meta_mean_motion": 14.19878696,
        "meta_eccentricity": 6.02e-05,
        "meta_inclination": 98.7474,
        "meta_ra_of_asc_node": 344.4105,
        "meta_arg_of_pericenter": 287.5498,
        "meta_mean_anomaly": 72.5613,
        "meta_ephemeris_type": 0,
        "meta_classification_type": "U",
        "meta_norad_cat_id": 49008,
        "meta_element_set_no": 999,
        "meta_rev_at_epoch": 22971,
        "meta_bstar": 1.1488e-05,
        "meta_mean_motion_dot": -2e-07,
        "meta_mean_motion_ddot": 0,
        "tle_line1": "1 49008U 21062A   25343.85560088 -.00000020  00000+0  11488-4 0  9997",
        "tle_line2": "2 49008  98.7474 344.4105 0000602 287.5498  72.5613 14.19878696229718"
      },
      "geometry": {
        "type": "Point",
        "coordinates": [
          -14.18543639339186,
          -6.833884005506424
        ]
      }
    },
    {
      "type": "Feature",
      "properties": {
        "norad_id": 51850,
        "name": "GOES 18",
        "group": "weather",
        "lat": 0.007921024246271778,
        "lon": 16.55561811743671,
        "alt_km": 35786.058954258784,
        "timestamp": "2025-12-10T04:57:29.249649+00:00",
        "meta_object_name": "GOES 18",
        "meta_object_id": "2022-021A",
        "meta_epoch": "2025-12-09T14:38:01.585248",
        "meta_mean_motion": 1.00269526,
        "meta_eccentricity": 6.36e-05,
        "meta_inclination": 0.0225,
        "meta_ra_of_asc_node": 211.3459,
        "meta_arg_of_pericenter": 88.2665,
        "meta_mean_anomaly": 221.4902,
        "meta_ephemeris_type": 0,
        "meta_classification_type": "U",
        "meta_norad_cat_id": 51850,
        "meta_element_set_no": 999,
        "meta_rev_at_epoch": 469,
        "meta_bstar": 0,
        "meta_mean_motion_dot": 9.9e-07,
        "meta_mean_motion_ddot": 0,
        "tle_line1": "1 51850U 22021A   25343.60974057  .00000099  00000+0  00000+0 0  9997",
        "tle_line2": "2 51850   0.0225 211.3459 0000636  88.2665 221.4902  1.00269526  4695"
      },
      "geometry": {
        "type": "Point",
        "coordinates": [
          16.55561811743671,
          0.007921024246271778
        ]
      }
    },
    {
      "type": "Feature",
      "properties": {
        "norad_id": 54234,
        "name": "NOAA 21 (JPSS-2)",
        "group": "weather",
        "lat": 2.6821179147797984,
        "lon": -79.86681282031921,
        "alt_km": 828.2284430793334,
        "timestamp": "2025-12-10T04:57:29.249664+00:00",
        "meta_object_name": "NOAA 21 (JPSS-2)",
        "meta_object_id": "2022-150A",
        "meta_epoch": "2025-12-09T18:47:43.513728",
        "meta_mean_motion": 14.19523057,
        "meta_eccentricity": 0.000233,
        "meta_inclination": 98.7458,
        "meta_ra_of_asc_node": 280.1283,
        "meta_arg_of_pericenter": 43.7023,
        "meta_mean_anomaly": 316.4337,
        "meta_ephemeris_type": 0,
        "meta_classification_type": "U",
        "meta_norad_cat_id": 54234,
        "meta_element_set_no": 999,
        "meta_rev_at_epoch": 15967,
        "meta_bstar": 0.00011904,
        "meta_mean_motion_dot": 2.07e-06,
        "meta_mean_motion_ddot": 0,
        "tle_line1": "1 54234U 22150A   25343.78314252  .00000207  00000+0  11904-3 0  9993",
        "tle_line2": "2 54234  98.7458 280.1283 0002330  43.7023 316.4337 14.19523057159674"
      },
      "geometry": {
        "type": "Point",
        "coordinates": [
          -79.86681282031921,
          2.6821179147797984
        ]
      }
    },
    {
      "type": "Feature",
      "properties": {
        "norad_id": 54743,
        "name": "METEOSAT-12 (MTG-I1)",
        "group": "weather",
        "lat": 0.6184169550511507,
        "lon": 153.33281790789314,
        "alt_km": 35786.24148076662,
        "timestamp": "2025-12-10T04:57:29.249676+00:00",
        "meta_object_name": "METEOSAT-12 (MTG-I1)",
        "meta_object_id": "2022-170C",
        "meta_epoch": "2025-12-09T06:50:38.880672",
        "meta_mean_motion": 1.00275177,
        "meta_eccentricity": 0.00014445,
        "meta_inclination": 0.7267,
        "meta_ra_of_asc_node": 31.0604,
        "meta_arg_of_pericenter": 223.8448,
        "meta_mean_anomaly": 285.8144,
        "meta_ephemeris_type": 0,
        "meta_classification_type": "U",
        "meta_norad_cat_id": 54743,
        "meta_element_set_no": 999,
        "meta_rev_at_epoch": 1107,
        "meta_bstar": 0,
        "meta_mean_motion_dot": -4e-08,
        "meta_mean_motion_ddot": 0,
        "tle_line1": "1 54743U 22170C   25343.28517223 -.00000004  00000+0  00000+0 0  9995",
        "tle_line2": "2 54743   0.7267  31.0604 0001444 223.8448 285.8144  1.00275177 11076"
      },
      "geometry": {
        "type": "Point",
        "coordinates": [
          153.33281790789314,
          0.6184169550511507
        ]
      }
    }
  ]
}